{
    "links": {
        "self": "http://www.neowsapp.com/rest/v1/neo/3781405?api_key=iIulBulltgU6a56xZRHN4H3l9WmuAYTsLGpBGhQ2"
    },
    "id": "3781405",
    "neo_reference_id": "3781405",
    "name": "(2017 RM2)",
    "designation": "2017 RM2",
    "nasa_jpl_url": "http://ssd.jpl.nasa.gov/sbdb.cgi?sstr=3781405",
    "absolute_magnitude_h": 25.1,
    "estimated_diameter": {
        "kilometers": {
            "estimated_diameter_min": 0.0253837029,
            "estimated_diameter_max": 0.0567596853
        },
        "meters": {
            "estimated_diameter_min": 25.3837029364,
            "estimated_diameter_max": 56.7596852866
        },
        "miles": {
            "estimated_diameter_min": 0.0157726969,
            "estimated_diameter_max": 0.0352688224
        },
        "feet": {
            "estimated_diameter_min": 83.279867942,
            "estimated_diameter_max": 186.2194458756
        }
    },
    "is_potentially_hazardous_asteroid": false,
    "close_approach_data": [
        {
            "close_approach_date": "2017-09-22",
            "close_approach_date_full": "2017-Sep-22 04:18",
            "epoch_date_close_approach": 1506053880000,
            "relative_velocity": {
                "kilometers_per_second": "4.8110266587",
                "kilometers_per_hour": "17319.6959711758",
                "miles_per_hour": "10761.7855327564"
            },
            "miss_distance": {
                "astronomical": "0.1509281469",
                "lunar": "58.7110491441",
                "kilometers": "22578529.299287103",
                "miles": "14029647.5431759014"
            },
            "orbiting_body": "Earth"
        }
    ],
    "orbital_data": {
        "orbit_id": "1",
        "orbit_determination_date": "2017-09-17 09:12:08",
        "first_observation_date": "2017-09-13",
        "last_observation_date": "2017-09-17",
        "data_arc_in_days": 4,
        "observations_used": 9,
        "orbit_uncertainty": "9",
        "minimum_orbit_intersection": ".150685",
        "jupiter_tisserand_invariant": "3.355",
        "epoch_osculation": "2458010.5",
        "eccentricity": ".5125096538007643",
        "semi_major_axis": "2.365658138258864",
        "inclination": "3.44738775609714",
        "ascending_node_longitude": "196.0666765032549",
        "orbital_period": "1329.004355161323",
        "perihelion_distance": "1.153235504808853",
        "perihelion_argument": "163.9685873032929",
        "aphelion_distance": "3.578080771708875",
        "perihelion_time": "2458019.959707709423",
        "mean_anomaly": "357.4375593562454",
        "mean_motion": ".2708794734960074",
        "equinox": "J2000",
        "orbit_class": {
            "orbit_class_type": "AMO",
            "orbit_class_description": "Near-Earth asteroid orbits similar to that of 1221 Amor",
            "orbit_class_range": "1.017 AU < q (perihelion) < 1.3 AU"
        }
    },
    "is_sentry_object": false
}